NORAD_CAT_ID,OBJECT_NAME,OBJECT_TYPE,EPOCH,MEAN_MOTION,ECCENTRICITY,INCLINATION,RA_OF_ASC_NODE,ARG_OF_PERICENTER,MEAN_ANOMALY,BSTAR,MEAN_MOTION_DOT,MEAN_MOTION_DDOT,TLE_LINE0,TLE_LINE1,TLE_LINE2,SEMIMAJOR_AXIS,PERIOD,APOGEE,PERIGEE,DECAYED
52469.0,STARLINK-3828,PAYLOAD,2023-04-25 05:11:15,15.08881748,0.0001346,53.2176,90.3829,90.0648,270.0498,0.00031925,4.802e-05,0.0,0 STARLINK-3828,1 52469U 22049U   23115.21615104  .00004802  00000-0  31925-3 0  9992,2 52469  53.2176  90.3829 0001346  90.0648 270.0498 15.08881748 53978,6917.753,95.435,540.549,538.687,0.0
52469.0,STARLINK-3828,PAYLOAD,2023-04-25 09:57:24,15.0888125,0.0001375,53.2175,89.4937,90.4744,269.6406,0.00029312,4.385e-05,0.0,0 STARLINK-3828,1 52469U 22049U   23115.41486724  .00004385  00000-0  29312-3 0  9991,2 52469  53.2175  89.4937 0001375  90.4744 269.6406 15.08881250 53846,6917.754,95.435,540.57,538.668,0.0
52469.0,STARLINK-3828,PAYLOAD,2023-04-26 01:51:20,15.0882385,0.0002074,53.2161,86.5154,128.0758,232.0422,-0.00018056,-3.159e-05,0.0,0 STARLINK-3828,1 52469U 22049U   23116.07731720 -.00003159  00000-0 -18056-3 0  9996,2 52469  53.2161  86.5154 0002074 128.0758 232.0422 15.08823850 54104,6917.93,95.439,541.23,538.36,0.0
52469.0,STARLINK-3828,PAYLOAD,2023-04-26 09:48:16,15.08818881,0.0001612,53.217,85.0307,118.5538,241.5616,-0.00021642,-3.729e-05,0.0,0 STARLINK-3828,1 52469U 22049U   23116.40852558 -.00003729  00000-0 -21642-3 0  9994,2 52469  53.2170  85.0307 0001612 118.5538 241.5616 15.08818881 53999,6917.945,95.439,540.925,538.695,0.0
52469.0,STARLINK-3828,PAYLOAD,2023-04-26 14:34:25,15.08819914,0.0001169,53.2174,84.1421,91.8149,268.2977,-0.00011236,-2.075e-05,0.0,0 STARLINK-3828,1 52469U 22049U   23116.60724410 -.00002075  00000-0 -11236-3 0  9992,2 52469  53.2174  84.1421 0001169  91.8149 268.2977 15.08819914 54027,6917.942,95.439,540.615,538.998,0.0
52469.0,STARLINK-3828,PAYLOAD,2023-04-27 04:52:53,15.08846886,0.0001061,53.2167,81.4659,96.9361,263.1752,-0.00028956,-4.894e-05,0.0,0 STARLINK-3828,1 52469U 22049U   23117.20339945 -.00004894  00000-0 -28956-3 0  9992,2 52469  53.2167  81.4659 0001061  96.9361 263.1752 15.08846886 54275,6917.859,95.437,540.458,538.99,0.0
52469.0,STARLINK-3828,PAYLOAD,2023-04-27 08:03:39,15.08849785,0.0001172,53.2177,80.8708,94.7199,265.3927,-0.00025093,-4.28e-05,0.0,0 STARLINK-3828,1 52469U 22049U   23117.33587638 -.00004280  00000-0 -25093-3 0  9998,2 52469  53.2177  80.8708 0001172  94.7199 265.3927 15.08849785 54136,6917.85,95.437,540.526,538.905,0.0
52469.0,STARLINK-3828,PAYLOAD,2023-04-27 20:46:43,15.08857134,0.0001048,53.2177,78.4914,92.0556,268.0556,-0.00016672,-2.941e-05,0.0,0 STARLINK-3828,1 52469U 22049U   23117.86578590 -.00002941  00000-0 -16672-3 0  9998,2 52469  53.2177  78.4914 0001048  92.0556 268.0556 15.08857134 54379,6917.828,95.436,540.418,538.968,0.0
52469.0,STARLINK-3828,PAYLOAD,2023-04-28 06:19:02,15.08841387,0.0001021,53.217,76.7078,102.0819,258.0288,0.0003323,5.005e-05,0.0,0 STARLINK-3828,1 52469U 22049U   23118.26322653  .00005005  00000-0  33230-3 0  9991,2 52469  53.2170  76.7078 0001021 102.0819 258.0288 15.08841387 54430,6917.876,95.437,540.447,539.035,0.0
52469.0,STARLINK-3828,PAYLOAD,2023-04-28 14:15:59,15.08830592,0.0001277,53.217,75.2214,91.6481,268.4657,0.00020517,2.978e-05,0.0,0 STARLINK-3828,1 52469U 22049U   23118.59444064  .00002978  00000-0  20517-3 0  9998,2 52469  53.2170  75.2214 0001277  91.6481 268.4657 15.08830592 54483,6917.909,95.438,540.658,538.891,0.0
52469.0,STARLINK-3828,PAYLOAD,2023-04-29 04:34:28,15.08838672,0.0001221,53.2178,72.5469,93.2308,266.8824,6.4934e-05,7.46e-06,0.0,0 STARLINK-3828,1 52469U 22049U   23119.19060219  .00000746  00000-0  64934-4 0  9994,2 52469  53.2178  72.5469 0001221  93.2308 266.8824 15.08838672 54416,6917.884,95.438,540.594,538.905,0.0
52469.0,STARLINK-3828,PAYLOAD,2023-04-29 20:28:19,15.08842967,0.0001308,53.2177,69.5742,84.0322,276.0819,-5.3435e-06,-3.73e-06,0.0,0 STARLINK-3828,1 52469U 22049U   23119.85300134 -.00000373  00000-0 -53435-5 0  9993,2 52469  53.2177  69.5742 0001308  84.0322 276.0819 15.08842967 54672,6917.871,95.437,540.641,538.831,0.0
52469.0,STARLINK-3828,PAYLOAD,2023-04-30 06:00:37,15.08850403,0.0001227,53.2177,67.7876,95.0519,265.0614,6.9718e-06,-1.77e-06,0.0,0 STARLINK-3828,1 52469U 22049U   23120.25043486 -.00000177  00000-0  69718-5 0  9995,2 52469  53.2177  67.7876 0001227  95.0519 265.0614 15.08850403 54732,6917.849,95.437,540.562,538.865,0.0
52469.0,STARLINK-3828,PAYLOAD,2023-04-30 20:19:06,15.08836155,0.0001332,53.218,65.1107,94.6579,265.4565,7.8069e-05,9.55e-06,0.0,0 STARLINK-3828,1 52469U 22049U   23120.84660127  .00000955  00000-0  78069-4 0  9998,2 52469  53.2180  65.1107 0001332  94.6579 265.4565 15.08836155 54820,6917.892,95.438,540.679,538.836,0.0
52469.0,STARLINK-3828,PAYLOAD,2023-05-01 05:51:24,15.08843749,0.0001469,53.2181,63.3263,102.7783,257.3373,8.9514e-05,1.137e-05,0.0,0 STARLINK-3828,1 52469U 22049U   23121.24403623  .00001137  00000-0  89514-4 0  9999,2 52469  53.2181  63.3263 0001469 102.7783 257.3373 15.08843749 54883,6917.869,95.437,540.75,538.718,0.0
52469.0,STARLINK-3828,PAYLOAD,2023-05-01 23:20:39,15.08839785,0.0001405,53.2189,60.0558,102.9583,257.1566,2.9987e-05,1.89e-06,0.0,0 STARLINK-3828,1 52469U 22049U   23121.97268052  .00000189  00000-0  29987-4 0  9998,2 52469  53.2189  60.0558 0001405 102.9583 257.1566 15.08839785 54991,6917.881,95.438,540.718,538.774,0.0
52469.0,STARLINK-3828,PAYLOAD,2023-05-02 05:42:11,15.08846392,0.0001333,53.2188,58.8658,101.3573,258.7569,7.2147e-05,8.61e-06,0.0,0 STARLINK-3828,1 52469U 22049U   23122.23763482  .00000861  00000-0  72147-4 0  9998,2 52469  53.2188  58.8658 0001333 101.3573 258.7569 15.08846392 54877,6917.861,95.437,540.648,538.804,0.0
52469.0,STARLINK-3828,PAYLOAD,2023-05-03 02:22:12,15.08842013,0.000118,53.2184,55.0012,90.5233,269.5894,2.6075e-05,1.27e-06,0.0,0 STARLINK-3828,1 52469U 22049U   23123.09875858  .00000127  00000-0  26075-4 0  9998,2 52469  53.2184  55.0012 0001180  90.5233 269.5894 15.08842013 55168,6917.874,95.437,540.556,538.923,0.0
52469.0,STARLINK-3828,PAYLOAD,2023-05-03 19:51:27,15.0884111,0.000131,53.2187,51.7296,112.3186,247.7945,-0.00011211,-2.072e-05,0.0,0 STARLINK-3828,1 52469U 22049U   23123.82740508 -.00002072  00000-0 -11211-3 0  9990,2 52469  53.2187  51.7296 0001310 112.3186 247.7945 15.08841110 55277,6917.877,95.437,540.648,538.836,0.0
52469.0,STARLINK-3828,PAYLOAD,2023-05-04 03:48:22,15.08845864,0.0001185,53.219,50.2441,100.3949,259.7176,3.152e-05,2.14e-06,0.0,0 STARLINK-3828,1 52469U 22049U   23124.15859697  .00000214  00000-0  31520-4 0  9997,2 52469  53.2190  50.2441 0001185 100.3949 259.7176 15.08845864 55326,6917.862,95.437,540.547,538.908,0.0
52469.0,STARLINK-3828,PAYLOAD,2023-05-04 11:45:18,15.08842846,0.000119,53.219,48.7569,89.2415,270.8714,-1.1567e-05,-4.72e-06,0.0,0 STARLINK-3828,1 52469U 22049U   23124.48979958 -.00000472  00000-0 -11567-4 0  9993,2 52469  53.2190  48.7569 0001190  89.2415 270.8714 15.08842846 55215,6917.872,95.437,540.56,538.913,0.0
52469.0,STARLINK-3828,PAYLOAD,2023-05-05 00:28:24,15.08838153,0.0001292,53.2197,46.3812,106.036,254.0774,1.9753e-05,2.6e-07,0.0,0 STARLINK-3828,1 52469U 22049U   23125.01972414  .00000026  00000-0  19753-4 0  9991,2 52469  53.2197  46.3812 0001292 106.0360 254.0774 15.08838153 55459,6917.886,95.438,540.645,538.857,0.0
52469.0,STARLINK-3828,PAYLOAD,2023-05-05 03:39:10,15.08842254,0.000116,53.2187,45.7845,89.9654,270.1471,4.7208e-05,4.64e-06,0.0,0 STARLINK-3828,1 52469U 22049U   23125.15220096  .00000464  00000-0  47208-4 0  9990,2 52469  53.2187  45.7845 0001160  89.9654 270.1471 15.08842254 55311,6917.873,95.437,540.541,538.936,0.0
52469.0,STARLINK-3828,PAYLOAD,2023-05-06 01:54:34,15.08838631,0.0001089,53.2185,41.6204,86.1637,273.9479,3.8119e-05,3.19e-06,0.0,0 STARLINK-3828,1 52469U 22049U   23126.07956547  .00000319  00000-0  38119-4 0  9999,2 52469  53.2185  41.6204 0001089  86.1637 273.9479 15.08838631 55619,6917.885,95.438,540.503,538.996,0.0
52469.0,STARLINK-3828,PAYLOAD,2023-05-07 01:45:20,15.08856198,9.86e-05,53.2179,37.1605,97.6012,262.5092,0.00018031,2.584e-05,0.0,0 STARLINK-3828,1 52469U 22049U   23127.07314939  .00002584  00000-0  18031-3 0  9999,2 52469  53.2179  37.1605 0000986  97.6012 262.5092 15.08856198 55765,6917.831,95.437,540.378,539.014,0.0
52469.0,STARLINK-3828,PAYLOAD,2023-05-07 22:25:22,15.08837167,0.0001212,53.2173,33.2966,79.0972,281.0157,-4.4367e-06,-3.58e-06,0.0,0 STARLINK-3828,1 52469U 22049U   23127.93428901 -.00000358  00000-0 -44367-5 0  9991,2 52469  53.2173  33.2966 0001212  79.0972 281.0157 15.08837167 55738,6917.889,95.438,540.592,538.916,0.0
52469.0,STARLINK-3828,PAYLOAD,2023-05-08 00:00:45,15.08837808,0.0001121,53.2183,32.9971,88.9375,271.1745,-1.3766e-05,-5.07e-06,0.0,0 STARLINK-3828,1 52469U 22049U   23128.00052831 -.00000507  00000-0 -13766-4 0  9999,2 52469  53.2183  32.9971 0001121  88.9375 271.1745 15.08837808 55900,6917.887,95.438,540.528,538.977,0.0
52469.0,STARLINK-3828,PAYLOAD,2023-05-08 22:16:09,15.08850063,0.0001224,53.2186,28.833,87.2551,272.8581,-3.384e-05,-8.27e-06,0.0,0 STARLINK-3828,1 52469U 22049U   23128.92788224 -.00000827  00000-0 -33840-4 0  9992,2 52469  53.2186  28.8330 0001224  87.2551 272.8581 15.08850063 55889,6917.85,95.437,540.561,538.868,0.0
52469.0,STARLINK-3828,PAYLOAD,2023-05-08 23:51:31,15.08852083,0.0001255,53.2184,28.5357,88.2387,271.8749,-1.0657e-05,-4.58e-06,0.0,0 STARLINK-3828,1 52469U 22049U   23128.99412008 -.00000458  00000-0 -10657-4 0  9994,2 52469  53.2184  28.5357 0001255  88.2387 271.8749 15.08852083 55895,6917.843,95.437,540.577,538.84,0.0
52469.0,STARLINK-3828,PAYLOAD,2023-05-09 23:42:19,15.08840095,0.0001443,53.2187,24.0744,92.2172,267.8985,0.00013853,1.917e-05,0.0,0 STARLINK-3828,1 52469U 22049U   23129.98772507  .00001917  00000-0  13853-3 0  9996,2 52469  53.2187  24.0744 0001443  92.2172 267.8985 15.08840095 56040,6917.88,95.438,540.743,538.747,0.0
